{"fetched_at":"2026-07-19T17:31:08.183Z","source":"https://celestrak.org/NORAD/elements/gp.php?GROUP=kuiper&FORMAT=JSON","constellation":"kuiper","records":[{"OBJECT_NAME":"KUIPER-00589","OBJECT_ID":"2026-151E","EPOCH":"2026-07-19T06:45:23.911200","CLASSIFICATION_TYPE":"U","MEAN_MOTION":15.37402481,"ECCENTRICITY":0.0005251,"INCLINATION":51.8764,"RA_OF_ASC_NODE":160.6255,"ARG_OF_PERICENTER":153.6098,"MEAN_ANOMALY":206.5157,"EPHEMERIS_TYPE":0,"NORAD_CAT_ID":69767,"ELEMENT_SET_NO":999,"REV_AT_EPOCH":264,"BSTAR":0.00022504368,"MEAN_MOTION_DOT":0.00008,"MEAN_MOTION_DDOT":0},{"OBJECT_NAME":"KUIPER-00598","OBJECT_ID":"2026-151F","EPOCH":"2026-07-19T06:00:02.000160","CLASSIFICATION_TYPE":"U","MEAN_MOTION":15.34342787,"ECCENTRICITY":0.00084168,"INCLINATION":51.8646,"RA_OF_ASC_NODE":161.0217,"ARG_OF_PERICENTER":176.5077,"MEAN_ANOMALY":244.4944,"EPHEMERIS_TYPE":0,"NORAD_CAT_ID":69768,"ELEMENT_SET_NO":999,"REV_AT_EPOCH":318,"BSTAR":0.00052233239,"MEAN_MOTION_DOT":0.0001731,"MEAN_MOTION_DDOT":0},{"OBJECT_NAME":"KUIPER-00604","OBJECT_ID":"2026-151G","EPOCH":"2026-07-19T06:32:02.561568","CLASSIFICATION_TYPE":"U","MEAN_MOTION":15.38302919,"ECCENTRICITY":0.00026698,"INCLINATION":51.8803,"RA_OF_ASC_NODE":160.564,"ARG_OF_PERICENTER":117.4269,"MEAN_ANOMALY":242.699,"EPHEMERIS_TYPE":0,"NORAD_CAT_ID":69769,"ELEMENT_SET_NO":999,"REV_AT_EPOCH":264,"BSTAR":0.00029691197,"MEAN_MOTION_DOT":0.00011007,"MEAN_MOTION_DDOT":0},{"OBJECT_NAME":"KUIPER-00609","OBJECT_ID":"2026-151H","EPOCH":"2026-07-19T06:25:29.091648","CLASSIFICATION_TYPE":"U","MEAN_MOTION":15.38692887,"ECCENTRICITY":0.00012669,"INCLINATION":51.8808,"RA_OF_ASC_NODE":160.5336,"ARG_OF_PERICENTER":60.822,"MEAN_ANOMALY":299.2894,"EPHEMERIS_TYPE":0,"NORAD_CAT_ID":69770,"ELEMENT_SET_NO":999,"REV_AT_EPOCH":264,"BSTAR":0.00020782553,"MEAN_MOTION_DOT":0.00007683,"MEAN_MOTION_DDOT":0},{"OBJECT_NAME":"KUIPER-00611","OBJECT_ID":"2026-151J","EPOCH":"2026-07-19T06:28:39.803232","CLASSIFICATION_TYPE":"U","MEAN_MOTION":15.38507944,"ECCENTRICITY":0.00016153,"INCLINATION":51.8812,"RA_OF_ASC_NODE":160.5443,"ARG_OF_PERICENTER":111.8782,"MEAN_ANOMALY":248.2377,"EPHEMERIS_TYPE":0,"NORAD_CAT_ID":69771,"ELEMENT_SET_NO":999,"REV_AT_EPOCH":264,"BSTAR":0.00018619412,"MEAN_MOTION_DOT":0.00006799,"MEAN_MOTION_DDOT":0},{"OBJECT_NAME":"KUIPER-00612","OBJECT_ID":"2026-151K","EPOCH":"2026-07-19T06:36:46.011456","CLASSIFICATION_TYPE":"U","MEAN_MOTION":15.38005424,"ECCENTRICITY":0.00036125,"INCLINATION":51.8796,"RA_OF_ASC_NODE":160.5871,"ARG_OF_PERICENTER":128.9716,"MEAN_ANOMALY":231.1593,"EPHEMERIS_TYPE":0,"NORAD_CAT_ID":69772,"ELEMENT_SET_NO":999,"REV_AT_EPOCH":264,"BSTAR":0.00030775101,"MEAN_MOTION_DOT":0.00011312,"MEAN_MOTION_DDOT":0},{"OBJECT_NAME":"KUIPER-00614","OBJECT_ID":"2026-151L","EPOCH":"2026-07-19T06:33:25.458048","CLASSIFICATION_TYPE":"U","MEAN_MOTION":15.38209464,"ECCENTRICITY":0.00026781,"INCLINATION":51.8809,"RA_OF_ASC_NODE":160.5678,"ARG_OF_PERICENTER":135.027,"MEAN_ANOMALY":225.0934,"EPHEMERIS_TYPE":0,"NORAD_CAT_ID":69773,"ELEMENT_SET_NO":999,"REV_AT_EPOCH":264,"BSTAR":0.0002746802,"MEAN_MOTION_DOT":0.00010121,"MEAN_MOTION_DDOT":0},{"OBJECT_NAME":"KUIPER-00615","OBJECT_ID":"2026-151M","EPOCH":"2026-07-19T06:48:06.999840","CLASSIFICATION_TYPE":"U","MEAN_MOTION":15.37284787,"ECCENTRICITY":0.00060306,"INCLINATION":51.8784,"RA_OF_ASC_NODE":160.6376,"ARG_OF_PERICENTER":161.0575,"MEAN_ANOMALY":199.0637,"EPHEMERIS_TYPE":0,"NORAD_CAT_ID":69774,"ELEMENT_SET_NO":999,"REV_AT_EPOCH":264,"BSTAR":0.00023637798,"MEAN_MOTION_DOT":0.0000839,"MEAN_MOTION_DDOT":0},{"OBJECT_NAME":"KUIPER-00616","OBJECT_ID":"2026-151N","EPOCH":"2026-07-19T06:30:38.228256","CLASSIFICATION_TYPE":"U","MEAN_MOTION":15.38386622,"ECCENTRICITY":0.0002951,"INCLINATION":51.8789,"RA_OF_ASC_NODE":160.56,"ARG_OF_PERICENTER":135.6444,"MEAN_ANOMALY":224.478,"EPHEMERIS_TYPE":0,"NORAD_CAT_ID":69775,"ELEMENT_SET_NO":999,"REV_AT_EPOCH":264,"BSTAR":0.00035407852,"MEAN_MOTION_DOT":0.00013244,"MEAN_MOTION_DDOT":0},{"OBJECT_NAME":"KUIPER-00617","OBJECT_ID":"2026-151P","EPOCH":"2026-07-19T06:38:55.886208","CLASSIFICATION_TYPE":"U","MEAN_MOTION":15.37847087,"ECCENTRICITY":0.0003942,"INCLINATION":51.8804,"RA_OF_ASC_NODE":160.5953,"ARG_OF_PERICENTER":148.3664,"MEAN_ANOMALY":211.7561,"EPHEMERIS_TYPE":0,"NORAD_CAT_ID":69776,"ELEMENT_SET_NO":999,"REV_AT_EPOCH":264,"BSTAR":0.00028718417,"MEAN_MOTION_DOT":0.00010473,"MEAN_MOTION_DDOT":0},{"OBJECT_NAME":"KUIPER-00619","OBJECT_ID":"2026-151Q","EPOCH":"2026-07-19T06:27:01.899936","CLASSIFICATION_TYPE":"U","MEAN_MOTION":15.38604927,"ECCENTRICITY":0.00017493,"INCLINATION":51.8811,"RA_OF_ASC_NODE":160.5397,"ARG_OF_PERICENTER":84.0608,"MEAN_ANOMALY":276.0578,"EPHEMERIS_TYPE":0,"NORAD_CAT_ID":69777,"ELEMENT_SET_NO":999,"REV_AT_EPOCH":264,"BSTAR":0.00025633469,"MEAN_MOTION_DOT":0.00009543,"MEAN_MOTION_DDOT":0},{"OBJECT_NAME":"KUIPER-00621","OBJECT_ID":"2026-151R","EPOCH":"2026-07-19T06:30:41.195232","CLASSIFICATION_TYPE":"U","MEAN_MOTION":15.38312623,"ECCENTRICITY":0.00033345,"INCLINATION":51.8796,"RA_OF_ASC_NODE":160.5599,"ARG_OF_PERICENTER":139.3055,"MEAN_ANOMALY":220.8182,"EPHEMERIS_TYPE":0,"NORAD_CAT_ID":69778,"ELEMENT_SET_NO":999,"REV_AT_EPOCH":264,"BSTAR":0.00020390106,"MEAN_MOTION_DOT":0.00007434,"MEAN_MOTION_DDOT":0},{"OBJECT_NAME":"KUIPER-00622","OBJECT_ID":"2026-151S","EPOCH":"2026-07-19T06:51:41.052384","CLASSIFICATION_TYPE":"U","MEAN_MOTION":15.36979546,"ECCENTRICITY":0.00066554,"INCLINATION":51.8742,"RA_OF_ASC_NODE":160.6526,"ARG_OF_PERICENTER":160.4946,"MEAN_ANOMALY":199.6296,"EPHEMERIS_TYPE":0,"NORAD_CAT_ID":69779,"ELEMENT_SET_NO":999,"REV_AT_EPOCH":264,"BSTAR":0.00031771213,"MEAN_MOTION_DOT":0.00011304,"MEAN_MOTION_DDOT":0},{"OBJECT_NAME":"KUIPER-00623","OBJECT_ID":"2026-151T","EPOCH":"2026-07-17T06:22:24.548160","CLASSIFICATION_TYPE":"U","MEAN_MOTION":15.37672053,"ECCENTRICITY":0.0006129,"INCLINATION":51.8777,"RA_OF_ASC_NODE":170.365,"ARG_OF_PERICENTER":146.6,"MEAN_ANOMALY":213.5375,"EPHEMERIS_TYPE":0,"NORAD_CAT_ID":69780,"ELEMENT_SET_NO":999,"REV_AT_EPOCH":233,"BSTAR":0.003498,"MEAN_MOTION_DOT":0.00133416,"MEAN_MOTION_DDOT":0},{"OBJECT_NAME":"KUIPER-00626","OBJECT_ID":"2026-151U","EPOCH":"2026-07-19T04:04:27.513696","CLASSIFICATION_TYPE":"U","MEAN_MOTION":15.3491748,"ECCENTRICITY":0.00107264,"INCLINATION":51.8729,"RA_OF_ASC_NODE":161.3712,"ARG_OF_PERICENTER":179.1743,"MEAN_ANOMALY":180.9262,"EPHEMERIS_TYPE":0,"NORAD_CAT_ID":69781,"ELEMENT_SET_NO":999,"REV_AT_EPOCH":262,"BSTAR":0.00017631818,"MEAN_MOTION_DOT":0.00005691,"MEAN_MOTION_DDOT":0},{"OBJECT_NAME":"KUIPER-00627","OBJECT_ID":"2026-151V","EPOCH":"2026-07-19T05:41:38.218560","CLASSIFICATION_TYPE":"U","MEAN_MOTION":15.343837,"ECCENTRICITY":0.00095155,"INCLINATION":51.8694,"RA_OF_ASC_NODE":161.0688,"ARG_OF_PERICENTER":187.3495,"MEAN_ANOMALY":172.7353,"EPHEMERIS_TYPE":0,"NORAD_CAT_ID":69782,"ELEMENT_SET_NO":999,"REV_AT_EPOCH":263,"BSTAR":-0.0020283356,"MEAN_MOTION_DOT":-0.00068435,"MEAN_MOTION_DDOT":0}]}
